{
 "generated_at": "2026-07-02T08:12:02Z",
 "sources": [
  {
   "name": "CelesTrak",
   "url": "https://celestrak.org/NORAD/elements/",
   "license": "frei verfügbar; Attribution. Ursprünglich USSPACECOM/Space-Track."
  },
  {
   "name": "GCAT (J. McDowell, planet4589.org)",
   "url": "https://planet4589.org/space/gcat/",
   "license": "CC-BY 4.0"
  }
 ],
 "satellites": [
  {
   "norad": 68494,
   "name": "ICEYE-X71",
   "intl": "2026-067CG",
   "group": "sar",
   "gcat": {
    "class": "B",
    "category": "IMG-R",
    "owner": "ICEYE",
    "state": "FI"
   },
   "omm": {
    "OBJECT_NAME": "ICEYE-X71",
    "OBJECT_ID": "2026-067CG",
    "EPOCH": "2026-07-01T21:16:00.122592",
    "MEAN_MOTION": 14.91737946,
    "ECCENTRICITY": 0.00022397,
    "INCLINATION": 97.7614,
    "RA_OF_ASC_NODE": 140.8953,
    "ARG_OF_PERICENTER": 24.3859,
    "MEAN_ANOMALY": 335.7465,
    "EPHEMERIS_TYPE": 0,
    "CLASSIFICATION_TYPE": "U",
    "NORAD_CAT_ID": 68494,
    "ELEMENT_SET_NO": 999,
    "REV_AT_EPOCH": 1391,
    "BSTAR": 0.00032907499,
    "MEAN_MOTION_DOT": 0.00003258,
    "MEAN_MOTION_DDOT": 0
   }
  },
  {
   "norad": 68504,
   "name": "ICEYE-X72",
   "intl": "2026-067CS",
   "group": "sar",
   "gcat": {
    "class": "B",
    "category": "IMG-R",
    "owner": "ICEYE",
    "state": "FI"
   },
   "omm": {
    "OBJECT_NAME": "ICEYE-X72",
    "OBJECT_ID": "2026-067CS",
    "EPOCH": "2026-07-01T17:10:09.612192",
    "MEAN_MOTION": 14.94172304,
    "ECCENTRICITY": 0.0014849,
    "INCLINATION": 97.7481,
    "RA_OF_ASC_NODE": 140.8513,
    "ARG_OF_PERICENTER": 29.0549,
    "MEAN_ANOMALY": 331.1494,
    "EPHEMERIS_TYPE": 0,
    "CLASSIFICATION_TYPE": "U",
    "NORAD_CAT_ID": 68504,
    "ELEMENT_SET_NO": 999,
    "REV_AT_EPOCH": 1389,
    "BSTAR": 0.0068256142,
    "MEAN_MOTION_DOT": 0.00073909,
    "MEAN_MOTION_DDOT": 0
   }
  },
  {
   "norad": 68496,
   "name": "ICEYE-X73",
   "intl": "2026-067CJ",
   "group": "sar",
   "gcat": {
    "class": "B",
    "category": "IMG-R",
    "owner": "ICEYE",
    "state": "FI"
   },
   "omm": {
    "OBJECT_NAME": "ICEYE-X73",
    "OBJECT_ID": "2026-067CJ",
    "EPOCH": "2026-07-01T20:26:27.464928",
    "MEAN_MOTION": 14.92295507,
    "ECCENTRICITY": 0.00002425,
    "INCLINATION": 97.7612,
    "RA_OF_ASC_NODE": 140.9367,
    "ARG_OF_PERICENTER": 152.4655,
    "MEAN_ANOMALY": 207.6577,
    "EPHEMERIS_TYPE": 0,
    "CLASSIFICATION_TYPE": "U",
    "NORAD_CAT_ID": 68496,
    "ELEMENT_SET_NO": 999,
    "REV_AT_EPOCH": 1391,
    "BSTAR": 0.00028311404,
    "MEAN_MOTION_DOT": 0.00002835,
    "MEAN_MOTION_DDOT": 0
   }
  },
  {
   "norad": 68500,
   "name": "ICEYE-X74",
   "intl": "2026-067CN",
   "group": "sar",
   "gcat": {
    "class": "B",
    "category": "IMG-R",
    "owner": "ICEYE",
    "state": "FI"
   },
   "omm": {
    "OBJECT_NAME": "ICEYE-X74",
    "OBJECT_ID": "2026-067CN",
    "EPOCH": "2026-07-01T21:14:45.557664",
    "MEAN_MOTION": 14.91737993,
    "ECCENTRICITY": 0.00020668,
    "INCLINATION": 97.7624,
    "RA_OF_ASC_NODE": 140.9039,
    "ARG_OF_PERICENTER": 21.0412,
    "MEAN_ANOMALY": 339.0891,
    "EPHEMERIS_TYPE": 0,
    "CLASSIFICATION_TYPE": "U",
    "NORAD_CAT_ID": 68500,
    "ELEMENT_SET_NO": 999,
    "REV_AT_EPOCH": 1391,
    "BSTAR": 0.00031932345,
    "MEAN_MOTION_DOT": 0.0000316,
    "MEAN_MOTION_DDOT": 0
   }
  },
  {
   "norad": 68497,
   "name": "ICEYE-X75",
   "intl": "2026-067CK",
   "group": "sar",
   "gcat": {
    "class": "B",
    "category": "IMG-R",
    "owner": "ICEYE",
    "state": "FI"
   },
   "omm": {
    "OBJECT_NAME": "ICEYE-X75",
    "OBJECT_ID": "2026-067CK",
    "EPOCH": "2026-07-01T10:51:26.089056",
    "MEAN_MOTION": 14.92150721,
    "ECCENTRICITY": 0.00002449,
    "INCLINATION": 97.7598,
    "RA_OF_ASC_NODE": 140.5166,
    "ARG_OF_PERICENTER": 137.9165,
    "MEAN_ANOMALY": 222.2073,
    "EPHEMERIS_TYPE": 0,
    "CLASSIFICATION_TYPE": "U",
    "NORAD_CAT_ID": 68497,
    "ELEMENT_SET_NO": 999,
    "REV_AT_EPOCH": 1385,
    "BSTAR": 0.00011638413,
    "MEAN_MOTION_DOT": 0.00001128,
    "MEAN_MOTION_DDOT": 0
   }
  },
  {
   "norad": 68502,
   "name": "ICEYE-X76",
   "intl": "2026-067CQ",
   "group": "sar",
   "gcat": {
    "class": "B",
    "category": "IMG-R",
    "owner": "ICEYE",
    "state": "FI"
   },
   "omm": {
    "OBJECT_NAME": "ICEYE-X76",
    "OBJECT_ID": "2026-067CQ",
    "EPOCH": "2026-07-01T21:08:27.574080",
    "MEAN_MOTION": 14.91728142,
    "ECCENTRICITY": 0.00017662,
    "INCLINATION": 97.7632,
    "RA_OF_ASC_NODE": 140.9167,
    "ARG_OF_PERICENTER": 14.3199,
    "MEAN_ANOMALY": 345.8069,
    "EPHEMERIS_TYPE": 0,
    "CLASSIFICATION_TYPE": "U",
    "NORAD_CAT_ID": 68502,
    "ELEMENT_SET_NO": 999,
    "REV_AT_EPOCH": 1391,
    "BSTAR": 0.00011385763,
    "MEAN_MOTION_DOT": 0.00001091,
    "MEAN_MOTION_DDOT": 0
   }
  },
  {
   "norad": 68995,
   "name": "ICEYE-X78",
   "intl": "2026-100R",
   "group": "sar",
   "gcat": {
    "class": "B",
    "category": "IMG-R",
    "owner": "MON/WKL",
    "state": "PL"
   },
   "omm": {
    "OBJECT_NAME": "ICEYE-X78",
    "OBJECT_ID": "2026-100R",
    "EPOCH": "2026-07-01T23:11:25.176768",
    "MEAN_MOTION": 14.91792531,
    "ECCENTRICITY": 0.0003977,
    "INCLINATION": 97.7352,
    "RA_OF_ASC_NODE": 80.1471,
    "ARG_OF_PERICENTER": 81.4544,
    "MEAN_ANOMALY": 278.7125,
    "EPHEMERIS_TYPE": 0,
    "CLASSIFICATION_TYPE": "U",
    "NORAD_CAT_ID": 68995,
    "ELEMENT_SET_NO": 999,
    "REV_AT_EPOCH": 890,
    "BSTAR": 0.000085104895,
    "MEAN_MOTION_DOT": 0.00000803,
    "MEAN_MOTION_DDOT": 0
   }
  },
  {
   "norad": 68996,
   "name": "ICEYE-X82",
   "intl": "2026-100S",
   "group": "sar",
   "gcat": {
    "class": "B",
    "category": "IMG-R",
    "owner": "ICEYE",
    "state": "FI"
   },
   "omm": {
    "OBJECT_NAME": "ICEYE-X82",
    "OBJECT_ID": "2026-100S",
    "EPOCH": "2026-07-01T15:34:50.022912",
    "MEAN_MOTION": 14.91368151,
    "ECCENTRICITY": 0.00058413,
    "INCLINATION": 97.7346,
    "RA_OF_ASC_NODE": 79.7899,
    "ARG_OF_PERICENTER": 96.1884,
    "MEAN_ANOMALY": 264.0001,
    "EPHEMERIS_TYPE": 0,
    "CLASSIFICATION_TYPE": "U",
    "NORAD_CAT_ID": 68996,
    "ELEMENT_SET_NO": 999,
    "REV_AT_EPOCH": 885,
    "BSTAR": 0.00029901789,
    "MEAN_MOTION_DOT": 0.00002929,
    "MEAN_MOTION_DDOT": 0
   }
  },
  {
   "norad": 39216,
   "name": "INSAT-3D",
   "intl": "2013-038B",
   "group": "weather",
   "gcat": {
    "class": "C",
    "category": "MET",
    "owner": "ISRO",
    "state": "IN"
   },
   "omm": {
    "OBJECT_NAME": "INSAT-3D",
    "OBJECT_ID": "2013-038B",
    "EPOCH": "2026-07-01T21:29:21.638112",
    "MEAN_MOTION": 1.00269269,
    "ECCENTRICITY": 0.00010984,
    "INCLINATION": 1.9621,
    "RA_OF_ASC_NODE": 82.3689,
    "ARG_OF_PERICENTER": 12.4726,
    "MEAN_ANOMALY": 276.9412,
    "EPHEMERIS_TYPE": 0,
    "CLASSIFICATION_TYPE": "U",
    "NORAD_CAT_ID": 39216,
    "ELEMENT_SET_NO": 999,
    "REV_AT_EPOCH": 4722,
    "BSTAR": 0,
    "MEAN_MOTION_DOT": -0.0000033,
    "MEAN_MOTION_DDOT": 0
   }
  },
  {
   "norad": 41752,
   "name": "INSAT-3DR",
   "intl": "2016-054A",
   "group": "weather",
   "gcat": {
    "class": "C",
    "category": "MET",
    "owner": "ISRO",
    "state": "IN"
   },
   "omm": {
    "OBJECT_NAME": "INSAT-3DR",
    "OBJECT_ID": "2016-054A",
    "EPOCH": "2026-07-01T17:48:07.136064",
    "MEAN_MOTION": 1.00272346,
    "ECCENTRICITY": 0.00100843,
    "INCLINATION": 0.1407,
    "RA_OF_ASC_NODE": 85.9571,
    "ARG_OF_PERICENTER": 186.335,
    "MEAN_ANOMALY": 348.5098,
    "EPHEMERIS_TYPE": 0,
    "CLASSIFICATION_TYPE": "U",
    "NORAD_CAT_ID": 41752,
    "ELEMENT_SET_NO": 999,
    "REV_AT_EPOCH": 3596,
    "BSTAR": 0,
    "MEAN_MOTION_DOT": -6.7e-7,
    "MEAN_MOTION_DDOT": 0
   }
  }
 ]
}
