INSAT-3D                
1 39216U 13038B   26182.89538933 -.00000330  00000+0  00000+0 0  9998
2 39216   1.9621  82.3689 0001098  12.4726 276.9412  1.00269269 47229
INSAT-3DR               
1 41752U 16054A   26182.74174926 -.00000067  00000+0  00000+0 0  9996
2 41752   0.1407  85.9571 0010084 186.3350 348.5098  1.00272346 35962
ICEYE-X71               
1 68494U 26067CG  26182.88611253  .00003258  00000+0  32907-3 0  9996
2 68494  97.7614 140.8953 0002239  24.3859 335.7465 14.91737946 13912
ICEYE-X73               
1 68496U 26067CJ  26182.85170677  .00002835  00000+0  28311-3 0  9999
2 68496  97.7612 140.9367 0000242 152.4655 207.6577 14.92295507 13915
ICEYE-X75               
1 68497U 26067CK  26182.45238529  .00001128  00000+0  11638-3 0  9995
2 68497  97.7598 140.5166 0000244 137.9165 222.2073 14.92150721 13853
ICEYE-X74               
1 68500U 26067CN  26182.88524951  .00003160  00000+0  31932-3 0  9991
2 68500  97.7624 140.9039 0002066  21.0412 339.0891 14.91737993 13916
ICEYE-X76               
1 68502U 26067CQ  26182.88087470  .00001091  00000+0  11386-3 0  9995
2 68502  97.7632 140.9167 0001766  14.3199 345.8069 14.91728142 13910
ICEYE-X72               
1 68504U 26067CS  26182.71538903  .00073909  00000+0  68256-2 0  9995
2 68504  97.7481 140.8513 0014849  29.0549 331.1494 14.94172304 13899
ICEYE-X78               
1 68995U 26100R   26182.96626362  .00000803  00000+0  85105-4 0  9998
2 68995  97.7352  80.1471 0003977  81.4544 278.7125 14.91792531  8906
ICEYE-X82               
1 68996U 26100S   26182.64919008  .00002929  00000+0  29902-3 0  9999
2 68996  97.7346  79.7899 0005841  96.1884 264.0001 14.91368151  8852
